GLOBALSTAR M084         
1 38040U 11080A   24137.85868597 -.00000081  00000+0  12613-3 0  9993
2 38040  51.9986 175.0413 0000186 229.9883 301.5793 12.62262542572613
GLOBALSTAR M080         
1 38041U 11080B   24138.35184852 -.00000075  00000+0  15791-3 0  9998
2 38041  52.0038 175.0087 0000457 213.3003 159.6696 12.62272761572947
GLOBALSTAR M082         
1 38042U 11080C   24137.76655409 -.00000087  00000+0  94517-4 0  9991
2 38042  52.0053 132.1939 0000789  42.1544 129.3305 12.62269578573439
GLOBALSTAR M092         
1 38043U 11080D   24138.49676872 -.00000087  00000+0  92328-4 0  9998
2 38043  52.0073 220.3248 0000282 135.8645 237.2764 12.62262508572191
GLOBALSTAR M090         
1 38044U 11080E   24137.71359294 -.00000084  00000+0  11059-3 0  9997
2 38044  51.9863 126.6731 0000525  53.4676 117.9304 12.62263258573548
GLOBALSTAR M086         
1 38045U 11080F   24137.73994983 -.00000078  00000+0  14348-3 0  9997
2 38045  51.9875 127.1125 0000857 146.3221  25.2166 12.62270949573497
GLOBALSTAR M097         
1 39072U 13005A   24138.44173299 -.00000087  00000+0  91758-4 0  9996
2 39072  52.0070  39.1232 0000928  82.6923 277.4050 12.62262942520914
GLOBALSTAR M093         
1 39073U 13005B   24137.46485463 -.00000083  00000+0  11858-3 0  9995
2 39073  51.9833  36.0335 0001016  81.4647 278.6335 12.62259251520782
